{"type": "FeatureCollection", "features": [ {"type": "Feature", "properties": {"norad_id": 33728, "name": "FENGYUN 1C DEB", "group": "fengyun-1c-debris", "lat": 33.22699700163443, "lon": 32.20026975816009, "alt_km": 687.6498046128609, "timestamp": "2025-12-08T19:31:49.095292+00:00", "meta": {"OBJECT_NAME": "FENGYUN 1C DEB", "OBJECT_ID": "1999-025DHR", "EPOCH": "2025-12-03T02:36:27.776448", "MEAN_MOTION": 14.9242061, "ECCENTRICITY": 0.01477094, "INCLINATION": 98.9821, "RA_OF_ASC_NODE": 31.6441, "ARG_OF_PERICENTER": 246.0941, "MEAN_ANOMALY": 112.4742, "EPHEMERIS_TYPE": 0, "CLASSIFICATION_TYPE": "U", "NORAD_CAT_ID": 33728, "ELEMENT_SET_NO": 999, "REV_AT_EPOCH": 98156, "BSTAR": 0.00081217474, "MEAN_MOTION_DOT": 0.00010213, "MEAN_MOTION_DDOT": 0}, "tle": {"line1": "1 33728U 99025DHR 25337.10865482  .00010213  00000+0  81217-3 0  9990", "line2": "2 33728  98.9821  31.6441 0147709 246.0941 112.4742 14.92420610981564"}}, "geometry": {"type": "Point", "coordinates": [32.20026975816009, 33.22699700163443]}}, {"type": "Feature", "properties": {"norad_id": 33730, "name": "FENGYUN 1C DEB", "group": "fengyun-1c-debris", "lat": -4.507909508240008, "lon": 40.9051095633159, "alt_km": 660.9786976537525, "timestamp": "2025-12-08T19:31:49.095311+00:00", "meta": {"OBJECT_NAME": "FENGYUN 1C DEB", "OBJECT_ID": "1999-025DHT", "EPOCH": "2025-12-03T09:54:11.246688", "MEAN_MOTION": 14.63205109, "ECCENTRICITY": 0.00401027, "INCLINATION": 99.0564, "RA_OF_ASC_NODE": 34.2592, "ARG_OF_PERICENTER": 40.0931, "MEAN_ANOMALY": 320.3216, "EPHEMERIS_TYPE": 0, "CLASSIFICATION_TYPE": "U", "NORAD_CAT_ID": 33730, "ELEMENT_SET_NO": 999, "REV_AT_EPOCH": 95543, "BSTAR": 0.0021836397, "MEAN_MOTION_DOT": 0.00011334, "MEAN_MOTION_DDOT": 0}, "tle": {"line1": "1 33730U 99025DHT 25337.41263017  .00011334  00000+0  21836-2 0  9998", "line2": "2 33730  99.0564  34.2592 0040102  40.0931 320.3216 14.63205109955434"}}, "geometry": {"type": "Point", "coordinates": [40.9051095633159, -4.507909508240008]}}, {"type": "Feature", "properties": {"norad_id": 33731, "name": "FENGYUN 1C DEB", "group": "fengyun-1c-debris", "lat": 71.57617229833271, "lon": -145.0868104405849, "alt_km": 829.5764194586372, "timestamp": "2025-12-08T19:31:49.095321+00:00", "meta": {"OBJECT_NAME": "FENGYUN 1C DEB", "OBJECT_ID": "1999-025DHU", "EPOCH": "2025-12-07T18:56:32.396640", "MEAN_MOTION": 13.95314387, "ECCENTRICITY": 0.01292345, "INCLINATION": 99.4444, "RA_OF_ASC_NODE": 3.886, "ARG_OF_PERICENTER": 69.4564, "MEAN_ANOMALY": 292.0409, "EPHEMERIS_TYPE": 0, "CLASSIFICATION_TYPE": "U", "NORAD_CAT_ID": 33731, "ELEMENT_SET_NO": 999, "REV_AT_EPOCH": 90380, "BSTAR": 0.0020152013, "MEAN_MOTION_DOT": 2.88e-05, "MEAN_MOTION_DDOT": 0}, "tle": {"line1": "1 33731U 99025DHU 25341.78926385  .00002880  00000+0  20152-2 0  9994", "line2": "2 33731  99.4444   3.8860 0129234  69.4564 292.0409 13.95314387903803"}}, "geometry": {"type": "Point", "coordinates": [-145.0868104405849, 71.57617229833271]}}, {"type": "Feature", "properties": {"norad_id": 33733, "name": "FENGYUN 1C DEB", "group": "fengyun-1c-debris", "lat": -58.248737781264246, "lon": 82.96694918973975, "alt_km": 823.6676741109677, "timestamp": "2025-12-08T19:31:49.095331+00:00", "meta": {"OBJECT_NAME": "FENGYUN 1C DEB", "OBJECT_ID": "1999-025DHW", "EPOCH": "2025-12-08T04:50:49.402752", "MEAN_MOTION": 14.30867233, "ECCENTRICITY": 0.00809024, "INCLINATION": 99.099, "RA_OF_ASC_NODE": 67.3183, "ARG_OF_PERICENTER": 183.3026, "MEAN_ANOMALY": 206.7882, "EPHEMERIS_TYPE": 0, "CLASSIFICATION_TYPE": "U", "NORAD_CAT_ID": 33733, "ELEMENT_SET_NO": 999, "REV_AT_EPOCH": 90383, "BSTAR": 0.0048281586, "MEAN_MOTION_DOT": 0.00013108, "MEAN_MOTION_DDOT": 0}, "tle": {"line1": "1 33733U 99025DHW 25342.20196068  .00013108  00000+0  48282-2 0  9990", "line2": "2 33733  99.0990  67.3183 0080902 183.3026 206.7882 14.30867233903830"}}, "geometry": {"type": "Point", "coordinates": [82.96694918973975, -58.248737781264246]}}, {"type": "Feature", "properties": {"norad_id": 33737, "name": "FENGYUN 1C DEB", "group": "fengyun-1c-debris", "lat": 11.496695119865594, "lon": -1.2402829490082152, "alt_km": 938.902888053618, "timestamp": "2025-12-08T19:31:49.095340+00:00", "meta": {"OBJECT_NAME": "FENGYUN 1C DEB", "OBJECT_ID": "1999-025DJA", "EPOCH": "2025-12-08T00:37:31.234944", "MEAN_MOTION": 14.02970872, "ECCENTRICITY": 0.01283779, "INCLINATION": 98.338, "RA_OF_ASC_NODE": 176.3285, "ARG_OF_PERICENTER": 296.5607, "MEAN_ANOMALY": 216.6599, "EPHEMERIS_TYPE": 0, "CLASSIFICATION_TYPE": "U", "NORAD_CAT_ID": 33737, "ELEMENT_SET_NO": 999, "REV_AT_EPOCH": 88674, "BSTAR": 0.0016375376, "MEAN_MOTION_DOT": 2.693e-05, "MEAN_MOTION_DDOT": 0}, "tle": {"line1": "1 33737U 99025DJA 25342.02605596  .00002693  00000+0  16375-2 0  9990", "line2": "2 33737  98.3380 176.3285 0128377 296.5607 216.6599 14.02970872886742"}}, "geometry": {"type": "Point", "coordinates": [-1.2402829490082152, 11.496695119865594]}}, {"type": "Feature", "properties": {"norad_id": 33738, "name": "FENGYUN 1C DEB", "group": "fengyun-1c-debris", "lat": 39.501797361686094, "lon": -129.5150193653719, "alt_km": 930.6719218245225, "timestamp": "2025-12-08T19:31:49.095349+00:00", "meta": {"OBJECT_NAME": "FENGYUN 1C DEB", "OBJECT_ID": "1999-025DJB", "EPOCH": "2025-12-08T03:34:10.755840", "MEAN_MOTION": 13.99519882, "ECCENTRICITY": 0.01849014, "INCLINATION": 99.1526, "RA_OF_ASC_NODE": 42.1825, "ARG_OF_PERICENTER": 34.0621, "MEAN_ANOMALY": 354.9516, "EPHEMERIS_TYPE": 0, "CLASSIFICATION_TYPE": "U", "NORAD_CAT_ID": 33738, "ELEMENT_SET_NO": 999, "REV_AT_EPOCH": 89172, "BSTAR": 0.00072571243, "MEAN_MOTION_DOT": 1.182e-05, "MEAN_MOTION_DDOT": 0}, "tle": {"line1": "1 33738U 99025DJB 25342.14873560  .00001182  00000+0  72571-3 0  9995", "line2": "2 33738  99.1526  42.1825 0184901  34.0621 354.9516 13.99519882891724"}}, "geometry": {"type": "Point", "coordinates": [-129.5150193653719, 39.501797361686094]}}, {"type": "Feature", "properties": {"norad_id": 33740, "name": "FENGYUN 1C DEB", "group": "fengyun-1c-debris", "lat": -4.530769016331554, "lon": -3.4601719849563675, "alt_km": 855.9801346820677, "timestamp": "2025-12-08T19:31:49.095359+00:00", "meta": {"OBJECT_NAME": "FENGYUN 1C DEB", "OBJECT_ID": "1999-025DJD", "EPOCH": "2025-12-08T07:38:59.871264", "MEAN_MOTION": 14.12319083, "ECCENTRICITY": 0.00019375, "INCLINATION": 98.6872, "RA_OF_ASC_NODE": 355.3659, "ARG_OF_PERICENTER": 136.0271, "MEAN_ANOMALY": 224.1055, "EPHEMERIS_TYPE": 0, "CLASSIFICATION_TYPE": "U", "NORAD_CAT_ID": 33740, "ELEMENT_SET_NO": 999, "REV_AT_EPOCH": 90084, "BSTAR": 0.00025853311, "MEAN_MOTION_DOT": 4.33e-06, "MEAN_MOTION_DDOT": 0}, "tle": {"line1": "1 33740U 99025DJD 25342.31874851  .00000433  00000+0  25853-3 0  9990", "line2": "2 33740  98.6872 355.3659 0001937 136.0271 224.1055 14.12319083900847"}}, "geometry": {"type": "Point", "coordinates": [-3.4601719849563675, -4.530769016331554]}}, {"type": "Feature", "properties": {"norad_id": 33741, "name": "FENGYUN 1C DEB", "group": "fengyun-1c-debris", "lat": 67.78523707677516, "lon": -125.05548181454154, "alt_km": 773.1844684486769, "timestamp": "2025-12-08T19:31:49.095368+00:00", "meta": {"OBJECT_NAME": "FENGYUN 1C DEB", "OBJECT_ID": "1999-025DJE", "EPOCH": "2025-12-08T05:34:43.167648", "MEAN_MOTION": 14.09764147, "ECCENTRICITY": 0.01275365, "INCLINATION": 98.5649, "RA_OF_ASC_NODE": 256.0462, "ARG_OF_PERICENTER": 100.9903, "MEAN_ANOMALY": 260.5645, "EPHEMERIS_TYPE": 0, "CLASSIFICATION_TYPE": "U", "NORAD_CAT_ID": 33741, "ELEMENT_SET_NO": 999, "REV_AT_EPOCH": 56799, "BSTAR": 0.0026592214, "MEAN_MOTION_DOT": 4.999e-05, "MEAN_MOTION_DDOT": 0}, "tle": {"line1": "1 33741U 99025DJE 25342.23244407  .00004999  00000+0  26592-2 0  9991", "line2": "2 33741  98.5649 256.0462 0127536 100.9903 260.5645 14.09764147567999"}}, "geometry": {"type": "Point", "coordinates": [-125.05548181454154, 67.78523707677516]}}, {"type": "Feature", "properties": {"norad_id": 33745, "name": "FENGYUN 1C DEB", "group": "fengyun-1c-debris", "lat": -71.08139711310675, "lon": 171.9120021111365, "alt_km": 790.2874157145625, "timestamp": "2025-12-08T19:31:49.095377+00:00", "meta": {"OBJECT_NAME": "FENGYUN 1C DEB", "OBJECT_ID": "1999-025DJJ", "EPOCH": "2025-11-25T01:05:32.743968", "MEAN_MOTION": 14.22170506, "ECCENTRICITY": 0.00530671, "INCLINATION": 99.1146, "RA_OF_ASC_NODE": 5.6166, "ARG_OF_PERICENTER": 317.4724, "MEAN_ANOMALY": 42.2348, "EPHEMERIS_TYPE": 0, "CLASSIFICATION_TYPE": "U", "NORAD_CAT_ID": 33745, "ELEMENT_SET_NO": 999, "REV_AT_EPOCH": 65750, "BSTAR": 0.0015193996, "MEAN_MOTION_DOT": 3.37e-05, "MEAN_MOTION_DDOT": 0}, "tle": {"line1": "1 33745U 99025DJJ 25329.04551787  .00003370  00000+0  15194-2 0  9999", "line2": "2 33745  99.1146   5.6166 0053067 317.4724  42.2348 14.22170506657501"}}, "geometry": {"type": "Point", "coordinates": [171.9120021111365, -71.08139711310675]}}, {"type": "Feature", "properties": {"norad_id": 33747, "name": "FENGYUN 1C DEB", "group": "fengyun-1c-debris", "lat": -57.207861300378525, "lon": -117.00091132891153, "alt_km": 777.5043693072848, "timestamp": "2025-12-08T19:31:49.095388+00:00", "meta": {"OBJECT_NAME": "FENGYUN 1C DEB", "OBJECT_ID": "1999-025DJL", "EPOCH": "2025-12-07T00:03:01.560960", "MEAN_MOTION": 14.17338054, "ECCENTRICITY": 0.00899301, "INCLINATION": 99.098, "RA_OF_ASC_NODE": 75.547, "ARG_OF_PERICENTER": 232.9564, "MEAN_ANOMALY": 126.336, "EPHEMERIS_TYPE": 0, "CLASSIFICATION_TYPE": "U", "NORAD_CAT_ID": 33747, "ELEMENT_SET_NO": 999, "REV_AT_EPOCH": 90051, "BSTAR": 0.0039970984, "MEAN_MOTION_DOT": 8.373e-05, "MEAN_MOTION_DDOT": 0}, "tle": {"line1": "1 33747U 99025DJL 25341.00210140  .00008373  00000+0  39971-2 0  9993", "line2": "2 33747  99.0980  75.5470 0089930 232.9564 126.3360 14.17338054900511"}}, "geometry": {"type": "Point", "coordinates": [-117.00091132891153, -57.207861300378525]}}]}